[
    {
        "Altitude(m)": 605470.7480980284,
        "Argument of Periapsis(deg)": 0.0,
        "Eccentricity": 0.0,
        "Inclination(deg)": 60.0,
        "Latitude(deg)": 27.988070100229667,
        "Longitude(deg)": -27.737105089715346,
        "Mean Anomaly(deg)": -212.7273,
        "RAAN(deg)": 270.0,
        "Satellite Name": "Test1 1197",
        "Satellite Number": 1197,
        "Semi-Major Axis(m)": 6980739.136638005,
        "Time(s)": 0
    },
    {
        "Altitude(m)": 605395.7866835374,
        "Argument of Periapsis(deg)": 0.00010418945913296404,
        "Eccentricity": 0.0,
        "Inclination(deg)": 60.0,
        "Latitude(deg)": 27.473761397651934,
        "Longitude(deg)": -27.383916618364392,
        "Mean Anomaly(deg)": -212.1071938545382,
        "RAAN(deg)": 269.99957995086027,
        "Satellite Name": "Test1 1197",
        "Satellite Number": 1197,
        "Semi-Major Axis(m)": 6980739.136638005,
        "Time(s)": 10
    }
]